FIREFLY-1               
1 62701U 25009CW  26196.91751738  .00000499  00000+0  53662-4 0  9994
2 62701  97.7061 274.4513 0002638 219.9817 140.1208 14.92742164 81601
FIREFLY-2               
1 62704U 25009CZ  26196.89542690  .00000755  00000+0  78527-4 0  9991
2 62704  97.7018 274.1990 0006322   0.7822 359.3406 14.92736376 81600
FIREFLY-3               
1 62710U 25009DF  26196.87351071  .00000409  00000+0  44876-4 0  9993
2 62710  97.7052 274.4379 0004739  71.8434 288.3301 14.92800725 81613
