{"fetched_at":"2026-07-16T06:42:53.524Z","source":"https://celestrak.org/NORAD/elements/gp.php?NAME=FIREFLY&FORMAT=JSON","constellation":"pixxel","records":[{"OBJECT_NAME":"FIREFLY-1","OBJECT_ID":"2025-009CW","EPOCH":"2026-07-15T22:01:13.501632","CLASSIFICATION_TYPE":"U","MEAN_MOTION":14.92742164,"ECCENTRICITY":0.00026381,"INCLINATION":97.7061,"RA_OF_ASC_NODE":274.4513,"ARG_OF_PERICENTER":219.9817,"MEAN_ANOMALY":140.1208,"EPHEMERIS_TYPE":0,"NORAD_CAT_ID":62701,"ELEMENT_SET_NO":999,"REV_AT_EPOCH":8160,"BSTAR":0.000053662137,"MEAN_MOTION_DOT":0.00000499,"MEAN_MOTION_DDOT":0},{"OBJECT_NAME":"FIREFLY-2","OBJECT_ID":"2025-009CZ","EPOCH":"2026-07-15T21:29:24.884160","CLASSIFICATION_TYPE":"U","MEAN_MOTION":14.92736376,"ECCENTRICITY":0.00063224,"INCLINATION":97.7018,"RA_OF_ASC_NODE":274.199,"ARG_OF_PERICENTER":0.7822,"MEAN_ANOMALY":359.3406,"EPHEMERIS_TYPE":0,"NORAD_CAT_ID":62704,"ELEMENT_SET_NO":999,"REV_AT_EPOCH":8160,"BSTAR":0.000078526899,"MEAN_MOTION_DOT":0.00000755,"MEAN_MOTION_DDOT":0},{"OBJECT_NAME":"FIREFLY-3","OBJECT_ID":"2025-009DF","EPOCH":"2026-07-15T20:57:51.325344","CLASSIFICATION_TYPE":"U","MEAN_MOTION":14.92800725,"ECCENTRICITY":0.00047393,"INCLINATION":97.7052,"RA_OF_ASC_NODE":274.4379,"ARG_OF_PERICENTER":71.8434,"MEAN_ANOMALY":288.3301,"EPHEMERIS_TYPE":0,"NORAD_CAT_ID":62710,"ELEMENT_SET_NO":999,"REV_AT_EPOCH":8161,"BSTAR":0.00004487633,"MEAN_MOTION_DOT":0.00000409,"MEAN_MOTION_DDOT":0}]}
